[{"OBJECT_NAME":"KUIPER-00043","OBJECT_ID":"2025-134E","EPOCH":"2026-03-09T22:00:01.999584","MEAN_MOTION":14.81364688,"ECCENTRICITY":0.00016525,"INCLINATION":51.9007,"RA_OF_ASC_NODE":232.0418,"ARG_OF_PERICENTER":110.2008,"MEAN_ANOMALY":148.1192,"EPHEMERIS_TYPE":0,"CLASSIFICATION_TYPE":"U","NORAD_CAT_ID":64504,"ELEMENT_SET_NO":999,"REV_AT_EPOCH":516,"BSTAR":0.0028433581,"MEAN_MOTION_DOT":0.0002228,"MEAN_MOTION_DDOT":0},{"OBJECT_NAME":"SL-14 R\/B","OBJECT_ID":"1983-122B","EPOCH":"2026-03-09T19:33:20.530944","MEAN_MOTION":14.85861842,"ECCENTRICITY":0.00180897,"INCLINATION":82.5257,"RA_OF_ASC_NODE":329.5422,"ARG_OF_PERICENTER":79.8346,"MEAN_ANOMALY":280.491,"EPHEMERIS_TYPE":0,"CLASSIFICATION_TYPE":"U","NORAD_CAT_ID":14552,"ELEMENT_SET_NO":999,"REV_AT_EPOCH":26085,"BSTAR":6.9629297e-5,"MEAN_MOTION_DOT":6.32e-6,"MEAN_MOTION_DDOT":0}]
